[{"OBJECT_NAME":"STARLINK-3925","OBJECT_ID":"2022-049AZ","EPOCH":"2026-03-27T19:25:21.207936","MEAN_MOTION":15.08835692,"ECCENTRICITY":0.0001486,"INCLINATION":53.2183,"RA_OF_ASC_NODE":317.7786,"ARG_OF_PERICENTER":90.7129,"MEAN_ANOMALY":269.4033,"EPHEMERIS_TYPE":0,"CLASSIFICATION_TYPE":"U","NORAD_CAT_ID":52498,"ELEMENT_SET_NO":999,"REV_AT_EPOCH":21526,"BSTAR":1.2501e-5,"MEAN_MOTION_DOT":-8.9e-7,"MEAN_MOTION_DDOT":0},{"OBJECT_NAME":"STARLINK-3894","OBJECT_ID":"2022-049BA","EPOCH":"2026-03-27T19:55:49.183968","MEAN_MOTION":15.08835203,"ECCENTRICITY":0.0001459,"INCLINATION":53.2181,"RA_OF_ASC_NODE":327.681,"ARG_OF_PERICENTER":85.2978,"MEAN_ANOMALY":274.8181,"EPHEMERIS_TYPE":0,"CLASSIFICATION_TYPE":"U","NORAD_CAT_ID":52499,"ELEMENT_SET_NO":999,"REV_AT_EPOCH":21513,"BSTAR":1.3129e-5,"MEAN_MOTION_DOT":-7.9e-7,"MEAN_MOTION_DDOT":0},{"OBJECT_NAME":"STARLINK-3866","OBJECT_ID":"2022-049BB","EPOCH":"2026-03-27T19:20:03.005376","MEAN_MOTION":15.08838043,"ECCENTRICITY":0.0001616,"INCLINATION":53.2188,"RA_OF_ASC_NODE":317.7928,"ARG_OF_PERICENTER":78.7971,"MEAN_ANOMALY":281.3203,"EPHEMERIS_TYPE":0,"CLASSIFICATION_TYPE":"U","NORAD_CAT_ID":52500,"ELEMENT_SET_NO":999,"REV_AT_EPOCH":21526,"BSTAR":4.0954e-5,"MEAN_MOTION_DOT":3.64e-6,"MEAN_MOTION_DDOT":0},{"OBJECT_NAME":"STARLINK-3907","OBJECT_ID":"2022-049BC","EPOCH":"2026-03-27T19:23:59.216064","MEAN_MOTION":15.08842599,"ECCENTRICITY":0.0001454,"INCLINATION":53.2181,"RA_OF_ASC_NODE":327.5807,"ARG_OF_PERICENTER":114.5605,"MEAN_ANOMALY":245.5539,"EPHEMERIS_TYPE":0,"CLASSIFICATION_TYPE":"U","NORAD_CAT_ID":52501,"ELEMENT_SET_NO":999,"REV_AT_EPOCH":21513,"BSTAR":7.0934e-5,"MEAN_MOTION_DOT":8.41e-6,"MEAN_MOTION_DDOT":0},{"OBJECT_NAME":"STARLINK-3912","OBJECT_ID":"2022-049BD","EPOCH":"2026-03-27T19:14:46.591296","MEAN_MOTION":15.0882589,"ECCENTRICITY":0.0001196,"INCLINATION":53.218,"RA_OF_ASC_NODE":317.8411,"ARG_OF_PERICENTER":110.8325,"MEAN_ANOMALY":249.2795,"EPHEMERIS_TYPE":0,"CLASSIFICATION_TYPE":"U","NORAD_CAT_ID":52502,"ELEMENT_SET_NO":999,"REV_AT_EPOCH":21526,"BSTAR":-0.00024747,"MEAN_MOTION_DOT":-4.223e-5,"MEAN_MOTION_DDOT":0},{"OBJECT_NAME":"STARLINK-3861","OBJECT_ID":"2022-049BE","EPOCH":"2026-03-27T18:58:49.795968","MEAN_MOTION":15.08841916,"ECCENTRICITY":0.0001785,"INCLINATION":53.2187,"RA_OF_ASC_NODE":317.7463,"ARG_OF_PERICENTER":108.9076,"MEAN_ANOMALY":251.211,"EPHEMERIS_TYPE":0,"CLASSIFICATION_TYPE":"U","NORAD_CAT_ID":52503,"ELEMENT_SET_NO":999,"REV_AT_EPOCH":21526,"BSTAR":3.1424e-6,"MEAN_MOTION_DOT":-2.38e-6,"MEAN_MOTION_DDOT":0},{"OBJECT_NAME":"STARLINK-3952","OBJECT_ID":"2022-051B","EPOCH":"2026-03-27T20:00:01.999008","MEAN_MOTION":15.86156606,"ECCENTRICITY":7.77e-5,"INCLINATION":53.217,"RA_OF_ASC_NODE":36.9487,"ARG_OF_PERICENTER":157.4427,"MEAN_ANOMALY":93.4185,"EPHEMERIS_TYPE":0,"CLASSIFICATION_TYPE":"U","NORAD_CAT_ID":52534,"ELEMENT_SET_NO":999,"REV_AT_EPOCH":573,"BSTAR":0.0048229,"MEAN_MOTION_DOT":0.01369066,"MEAN_MOTION_DDOT":0},{"OBJECT_NAME":"STARLINK-3958","OBJECT_ID":"2022-051C","EPOCH":"2026-03-27T20:38:13.066080","MEAN_MOTION":15.08833506,"ECCENTRICITY":0.000149,"INCLINATION":53.2177,"RA_OF_ASC_NODE":47.55,"ARG_OF_PERICENTER":90.15,"MEAN_ANOMALY":269.9662,"EPHEMERIS_TYPE":0,"CLASSIFICATION_TYPE":"U","NORAD_CAT_ID":52535,"ELEMENT_SET_NO":999,"REV_AT_EPOCH":21418,"BSTAR":-1.6489e-5,"MEAN_MOTION_DOT":-5.5e-6,"MEAN_MOTION_DDOT":0},{"OBJECT_NAME":"STARLINK-3964","OBJECT_ID":"2022-051D","EPOCH":"2026-03-27T04:39:03.174336","MEAN_MOTION":15.08837385,"ECCENTRICITY":0.00014747,"INCLINATION":53.2179,"RA_OF_ASC_NODE":50.5394,"ARG_OF_PERICENTER":85.2826,"MEAN_ANOMALY":274.8335,"EPHEMERIS_TYPE":0,"CLASSIFICATION_TYPE":"U","NORAD_CAT_ID":52536,"ELEMENT_SET_NO":999,"REV_AT_EPOCH":21408,"BSTAR":7.06731e-6,"MEAN_MOTION_DOT":-1.75e-6,"MEAN_MOTION_DDOT":0},{"OBJECT_NAME":"STARLINK-3897","OBJECT_ID":"2022-051E","EPOCH":"2026-03-27T07:17:59.437824","MEAN_MOTION":15.08840445,"ECCENTRICITY":0.0001389,"INCLINATION":53.2175,"RA_OF_ASC_NODE":49.8516,"ARG_OF_PERICENTER":89.5053,"MEAN_ANOMALY":270.6098,"EPHEMERIS_TYPE":0,"CLASSIFICATION_TYPE":"U","NORAD_CAT_ID":52537,"ELEMENT_SET_NO":999,"REV_AT_EPOCH":21410,"BSTAR":5.1493e-6,"MEAN_MOTION_DOT":-2.06e-6,"MEAN_MOTION_DDOT":0},{"OBJECT_NAME":"STARLINK-3933","OBJECT_ID":"2022-051F","EPOCH":"2026-03-27T13:55:28.186176","MEAN_MOTION":15.08839089,"ECCENTRICITY":0.0001294,"INCLINATION":53.2172,"RA_OF_ASC_NODE":48.8059,"ARG_OF_PERICENTER":87.6332,"MEAN_ANOMALY":272.4808,"EPHEMERIS_TYPE":0,"CLASSIFICATION_TYPE":"U","NORAD_CAT_ID":52538,"ELEMENT_SET_NO":999,"REV_AT_EPOCH":21414,"BSTAR":1.5264e-6,"MEAN_MOTION_DOT":-2.64e-6,"MEAN_MOTION_DDOT":0},{"OBJECT_NAME":"STARLINK-3757","OBJECT_ID":"2022-051G","EPOCH":"2026-03-27T20:22:19.291296","MEAN_MOTION":15.08834754,"ECCENTRICITY":0.0001455,"INCLINATION":53.2168,"RA_OF_ASC_NODE":47.5988,"ARG_OF_PERICENTER":85.3693,"MEAN_ANOMALY":274.7465,"EPHEMERIS_TYPE":0,"CLASSIFICATION_TYPE":"U","NORAD_CAT_ID":52539,"ELEMENT_SET_NO":999,"REV_AT_EPOCH":21418,"BSTAR":-6.2277e-5,"MEAN_MOTION_DOT":-1.279e-5,"MEAN_MOTION_DDOT":0},{"OBJECT_NAME":"STARLINK-3940","OBJECT_ID":"2022-051H","EPOCH":"2026-03-27T04:12:33.917184","MEAN_MOTION":15.08837539,"ECCENTRICITY":0.00014989,"INCLINATION":53.2173,"RA_OF_ASC_NODE":50.6615,"ARG_OF_PERICENTER":92.4355,"MEAN_ANOMALY":267.6809,"EPHEMERIS_TYPE":0,"CLASSIFICATION_TYPE":"U","NORAD_CAT_ID":52540,"ELEMENT_SET_NO":999,"REV_AT_EPOCH":21408,"BSTAR":-5.081468e-6,"MEAN_MOTION_DOT":-3.69e-6,"MEAN_MOTION_DDOT":0},{"OBJECT_NAME":"STARLINK-3845","OBJECT_ID":"2022-051J","EPOCH":"2026-03-27T20:50:48.384384","MEAN_MOTION":15.0883974,"ECCENTRICITY":0.0001219,"INCLINATION":53.2173,"RA_OF_ASC_NODE":52.5107,"ARG_OF_PERICENTER":83.1638,"MEAN_ANOMALY":276.9493,"EPHEMERIS_TYPE":0,"CLASSIFICATION_TYPE":"U","NORAD_CAT_ID":52541,"ELEMENT_SET_NO":999,"REV_AT_EPOCH":21411,"BSTAR":7.5844e-5,"MEAN_MOTION_DOT":9.19e-6,"MEAN_MOTION_DDOT":0},{"OBJECT_NAME":"STARLINK-3937","OBJECT_ID":"2022-051K","EPOCH":"2026-03-27T15:09:38.309760","MEAN_MOTION":15.08865239,"ECCENTRICITY":0.0001696,"INCLINATION":53.2206,"RA_OF_ASC_NODE":48.5749,"ARG_OF_PERICENTER":88.5576,"MEAN_ANOMALY":271.561,"EPHEMERIS_TYPE":0,"CLASSIFICATION_TYPE":"U","NORAD_CAT_ID":52542,"ELEMENT_SET_NO":999,"REV_AT_EPOCH":21415,"BSTAR":-0.00015129,"MEAN_MOTION_DOT":-2.697e-5,"MEAN_MOTION_DDOT":0},{"OBJECT_NAME":"STARLINK-3926","OBJECT_ID":"2022-051L","EPOCH":"2026-03-27T04:17:51.522720","MEAN_MOTION":15.08845291,"ECCENTRICITY":0.00013789,"INCLINATION":53.2179,"RA_OF_ASC_NODE":50.6049,"ARG_OF_PERICENTER":88.6185,"MEAN_ANOMALY":271.4965,"EPHEMERIS_TYPE":0,"CLASSIFICATION_TYPE":"U","NORAD_CAT_ID":52543,"ELEMENT_SET_NO":999,"REV_AT_EPOCH":21408,"BSTAR":-3.9430073e-5,"MEAN_MOTION_DOT":-9.16e-6,"MEAN_MOTION_DDOT":0},{"OBJECT_NAME":"STARLINK-3944","OBJECT_ID":"2022-051M","EPOCH":"2026-03-27T14:18:39.385152","MEAN_MOTION":15.08836022,"ECCENTRICITY":0.0001844,"INCLINATION":53.2174,"RA_OF_ASC_NODE":53.744,"ARG_OF_PERICENTER":87.2326,"MEAN_ANOMALY":272.8877,"EPHEMERIS_TYPE":0,"CLASSIFICATION_TYPE":"U","NORAD_CAT_ID":52544,"ELEMENT_SET_NO":999,"REV_AT_EPOCH":21407,"BSTAR":-1.6486e-5,"MEAN_MOTION_DOT":-5.5e-6,"MEAN_MOTION_DDOT":0},{"OBJECT_NAME":"STARLINK-3948","OBJECT_ID":"2022-051P","EPOCH":"2026-03-27T14:28:36.338304","MEAN_MOTION":15.08837,"ECCENTRICITY":0.0001712,"INCLINATION":53.2176,"RA_OF_ASC_NODE":48.4695,"ARG_OF_PERICENTER":85.9867,"MEAN_ANOMALY":274.1321,"EPHEMERIS_TYPE":0,"CLASSIFICATION_TYPE":"U","NORAD_CAT_ID":52546,"ELEMENT_SET_NO":999,"REV_AT_EPOCH":21415,"BSTAR":1.2673e-5,"MEAN_MOTION_DOT":-8.6e-7,"MEAN_MOTION_DDOT":0},{"OBJECT_NAME":"STARLINK-3931","OBJECT_ID":"2022-051R","EPOCH":"2026-03-27T20:59:25.424448","MEAN_MOTION":15.08832967,"ECCENTRICITY":0.0001104,"INCLINATION":53.2186,"RA_OF_ASC_NODE":47.4831,"ARG_OF_PERICENTER":104.123,"MEAN_ANOMALY":255.9885,"EPHEMERIS_TYPE":0,"CLASSIFICATION_TYPE":"U","NORAD_CAT_ID":52548,"ELEMENT_SET_NO":999,"REV_AT_EPOCH":21419,"BSTAR":0.00022267,"MEAN_MOTION_DOT":3.257e-5,"MEAN_MOTION_DDOT":0},{"OBJECT_NAME":"STARLINK-3935","OBJECT_ID":"2022-051S","EPOCH":"2026-03-27T15:04:21.761760","MEAN_MOTION":15.08839251,"ECCENTRICITY":0.0001511,"INCLINATION":53.2179,"RA_OF_ASC_NODE":48.5918,"ARG_OF_PERICENTER":94.0128,"MEAN_ANOMALY":266.1037,"EPHEMERIS_TYPE":0,"CLASSIFICATION_TYPE":"U","NORAD_CAT_ID":52549,"ELEMENT_SET_NO":999,"REV_AT_EPOCH":21415,"BSTAR":9.4734e-6,"MEAN_MOTION_DOT":-1.37e-6,"MEAN_MOTION_DDOT":0},{"OBJECT_NAME":"STARLINK-3965","OBJECT_ID":"2022-051T","EPOCH":"2026-03-27T21:10:00.373728","MEAN_MOTION":15.08839976,"ECCENTRICITY":0.000165,"INCLINATION":53.2189,"RA_OF_ASC_NODE":47.4516,"ARG_OF_PERICENTER":83.3684,"MEAN_ANOMALY":276.7496,"EPHEMERIS_TYPE":0,"CLASSIFICATION_TYPE":"U","NORAD_CAT_ID":52550,"ELEMENT_SET_NO":999,"REV_AT_EPOCH":21419,"BSTAR":-2.6753e-6,"MEAN_MOTION_DOT":-3.31e-6,"MEAN_MOTION_DDOT":0},{"OBJECT_NAME":"STARLINK-3969","OBJECT_ID":"2022-051U","EPOCH":"2026-03-27T14:59:03.677568","MEAN_MOTION":15.08839827,"ECCENTRICITY":0.0001452,"INCLINATION":53.2188,"RA_OF_ASC_NODE":48.6088,"ARG_OF_PERICENTER":83.9612,"MEAN_ANOMALY":276.1545,"EPHEMERIS_TYPE":0,"CLASSIFICATION_TYPE":"U","NORAD_CAT_ID":52551,"ELEMENT_SET_NO":999,"REV_AT_EPOCH":21415,"BSTAR":1.626e-5,"MEAN_MOTION_DOT":-2.9e-7,"MEAN_MOTION_DDOT":0},{"OBJECT_NAME":"STARLINK-3966","OBJECT_ID":"2022-051V","EPOCH":"2026-03-27T14:53:47.179680","MEAN_MOTION":15.0883788,"ECCENTRICITY":0.0001551,"INCLINATION":53.2182,"RA_OF_ASC_NODE":48.778,"ARG_OF_PERICENTER":78.6917,"MEAN_ANOMALY":281.4249,"EPHEMERIS_TYPE":0,"CLASSIFICATION_TYPE":"U","NORAD_CAT_ID":52552,"ELEMENT_SET_NO":999,"REV_AT_EPOCH":21415,"BSTAR":-2.5171e-5,"MEAN_MOTION_DOT":-6.89e-6,"MEAN_MOTION_DDOT":0}]
